{
  "links" : {
    "next" : "https://api.nasa.gov/neo/rest/v1/feed?start_date=2006-03-23&end_date=2006-03-23&detailed=true&api_key=t0TVs3DtDT2H8Oy2Zy8m2eVrNsAVKAexjcZXUckd",
    "prev" : "https://api.nasa.gov/neo/rest/v1/feed?start_date=2006-03-21&end_date=2006-03-21&detailed=true&api_key=t0TVs3DtDT2H8Oy2Zy8m2eVrNsAVKAexjcZXUckd",
    "self" : "https://api.nasa.gov/neo/rest/v1/feed?start_date=2006-03-22&end_date=2006-03-22&detailed=true&api_key=t0TVs3DtDT2H8Oy2Zy8m2eVrNsAVKAexjcZXUckd"
  },
  "element_count" : 7,
  "near_earth_objects" : {
    "2006-03-22" : [ {
      "links" : {
        "self" : "https://api.nasa.gov/neo/rest/v1/neo/3763944?api_key=t0TVs3DtDT2H8Oy2Zy8m2eVrNsAVKAexjcZXUckd"
      },
      "neo_reference_id" : "3763944",
      "name" : "(2016 WY)",
      "nasa_jpl_url" : "http://ssd.jpl.nasa.gov/sbdb.cgi?sstr=3763944",
      "absolute_magnitude_h" : 29.4,
      "estimated_diameter" : {
        "kilometers" : {
          "estimated_diameter_min" : 0.0035039264,
          "estimated_diameter_max" : 0.0078350176
        },
        "meters" : {
          "estimated_diameter_min" : 3.5039264111,
          "estimated_diameter_max" : 7.8350176433
        },
        "miles" : {
          "estimated_diameter_min" : 0.0021772383,
          "estimated_diameter_max" : 0.0048684527
        },
        "feet" : {
          "estimated_diameter_min" : 11.4958219265,
          "estimated_diameter_max" : 25.705439285
        }
      },
      "is_potentially_hazardous_asteroid" : false,
      "close_approach_data" : [ {
        "close_approach_date" : "2006-03-22",
        "epoch_date_close_approach" : 1143014400000,
        "relative_velocity" : {
          "kilometers_per_second" : "5.7774949641",
          "kilometers_per_hour" : "20798.9818706542",
          "miles_per_hour" : "12923.6784851295"
        },
        "miss_distance" : {
          "astronomical" : "0.2412806994",
          "lunar" : "93.8581924438",
          "kilometers" : "36095080",
          "miles" : "22428442"
        },
        "orbiting_body" : "Earth"
      } ],
      "orbital_data" : {
        "orbit_id" : "11",
        "orbit_determination_date" : "2017-04-06 08:22:06",
        "orbit_uncertainty" : "6",
        "minimum_orbit_intersection" : ".0040083",
        "jupiter_tisserand_invariant" : "6.940",
        "epoch_osculation" : "2458000.5",
        "eccentricity" : ".1732532216266498",
        "semi_major_axis" : ".8465819333192335",
        "inclination" : "1.900167220415758",
        "ascending_node_longitude" : "236.3703819156611",
        "orbital_period" : "284.5128728835478",
        "perihelion_distance" : ".6999088860007586",
        "perihelion_argument" : "2.225319050558626",
        "aphelion_distance" : ".9932549806377083",
        "perihelion_time" : "2458140.371138911477",
        "mean_anomaly" : "183.0181661103898",
        "mean_motion" : "1.265320603427843",
        "equinox" : "J2000"
      }
    } ]
  }
}